[{"OBJECT_NAME":"STARLINK-31802","OBJECT_ID":"2024-082F","EPOCH":"2026-03-08T14:34:53.043168","MEAN_MOTION":15.27580835,"ECCENTRICITY":0.00017216,"INCLINATION":42.9999,"RA_OF_ASC_NODE":146.1577,"ARG_OF_PERICENTER":175.8159,"MEAN_ANOMALY":184.2708,"EPHEMERIS_TYPE":0,"CLASSIFICATION_TYPE":"U","NORAD_CAT_ID":59636,"ELEMENT_SET_NO":999,"REV_AT_EPOCH":10464,"BSTAR":3.0949437e-5,"MEAN_MOTION_DOT":5.89e-6,"MEAN_MOTION_DDOT":0},{"OBJECT_NAME":"SIMSAT 2","OBJECT_ID":"2000-026B","EPOCH":"2026-03-09T20:25:01.673184","MEAN_MOTION":15.29036787,"ECCENTRICITY":0.00037035,"INCLINATION":86.3514,"RA_OF_ASC_NODE":176.4271,"ARG_OF_PERICENTER":287.9875,"MEAN_ANOMALY":72.0969,"EPHEMERIS_TYPE":0,"CLASSIFICATION_TYPE":"U","NORAD_CAT_ID":26366,"ELEMENT_SET_NO":999,"REV_AT_EPOCH":42803,"BSTAR":0.00013465771,"MEAN_MOTION_DOT":3.833e-5,"MEAN_MOTION_DDOT":0}]
